[Satellite]
VERSION=1.1
NAME=IRIDIUM 82 [-]
NICKNAME=IRIDIUM 82 [-]
TLE1=1 25467U 98051A   19317.52625849  .00000627  00000-0  43548-4 0  9992
TLE2=2 25467  86.3987 339.0323 0181457 133.9364 227.7002 14.90564339117772
STATUS=2
